#aV2022 12 23  0  0  0.00000000     288 DD+AD WGS84 FIT  NGA
## 2241 432000.00000000   300.00000000 59936 0.0000000000000
+   31     1  2  3  4  5  6  7  8  9 10 11 12 13 14 15 16 17
+         18 19 20 21 22 23 24 25 26 27 29 30 31 32  0  0  0
+          0  0  0  0  0  0  0  0  0  0  0  0  0  0  0  0  0
+          0  0  0  0  0  0  0  0  0  0  0  0  0  0  0  0  0
+          0  0  0  0  0  0  0  0  0  0  0  0  0  0  0  0  0
++         2  2  2  2  2  2  2  2  2  2  2  2  2  2  2  2  2
++         2  2  2  2  2  2  2  2  2  2  2  2  2  2  0  0  0
++         0  0  0  0  0  0  0  0  0  0  0  0  0  0  0  0  0
++         0  0  0  0  0  0  0  0  0  0  0  0  0  0  0  0  0
++         0  0  0  0  0  0  0  0  0  0  0  0  0  0  0  0  0
%c cc cc ccc ccc cccc cccc cccc cccc ccccc ccccc ccccc ccccc
%c cc cc ccc ccc cccc cccc cccc cccc ccccc ccccc ccccc ccccc
%f  0.0000000  0.000000000  0.00000000000  0.000000000000000
%f  0.0000000  0.000000000  0.00000000000  0.000000000000000
%i    0    0    0    0      0      0      0      0         0
%i    0    0    0    0      0      0      0      0         0
/*      NGA, ST. LOUIS,MO.                                  
/*   EPHEMERIS COMPUTED FROM 2 DAYS OF DATA                 
/*   EPOCHA v8 SMOOTHER                                     
/*   G2139 IERS2010 SATIGS SATAPC                           
*  2022 12 23  9  5  0.00000000
P  1  -5078.610083  17149.764931 -19825.150733    233.949521                    
V  1 -22368.309853  10145.045104  15071.433260     -0.050701                    
P  2   1055.677500 -17499.889548  20647.209254   -631.515708                    
V  2  21337.669354 -12535.970468 -11884.037921      0.020688                    
P  3   4700.150055  18154.969464 -18974.486700   -374.993733                    
V  3 -20634.184594 -11819.348261 -16421.862419      0.007255                    
P  4   -391.049346  26397.882417   2315.036970    -63.200146                    
V  4  -3078.657614   2719.420157 -31669.899828      0.072872                    
P  5  10026.926134 -11504.337633  21575.346859   -109.154542                    
V  5  23960.449659  14066.839857  -3491.333686     -0.014620                    
P  6  23908.321523  -4297.899784 -10768.134684    545.600565                    
V  6 -11443.718125   7734.603069 -28230.705307      0.072212                    
P  7  10922.068017  11765.578569  21637.037166    270.289893                    
V  7 -23390.472082  12382.461435   4689.202427     -0.056303                    
P  8  -6759.750970  23791.829169   9099.168703   -100.021438                    
V  8  -2670.141926 -11783.674951  29054.167279     -0.018281                    
P  9   8327.638877  21888.214112  12406.255433   -248.877827                    
V  9  -2841.765575  15854.311871 -25943.206868      0.062409                    
P 10 -23810.158194 -10920.854240  -5154.554231    -17.308119                    
V 10  -4583.225386  -5265.560095  31015.185057     -0.016294                    
P 11  23614.667779 -12013.486225   1575.009730    -62.669588                    
V 11   2946.879127   1657.198991 -31773.097087     -0.077826                    
P 12  -2222.350200 -18292.381031 -19440.595471   -319.289207                    
V 12  20007.753947  13389.109694 -14996.422970     -0.045264                    
P 13  12958.539632 -18364.173183  13825.422035    446.812949                    
V 13  -1051.587283  18011.365889  24779.493813      0.065515                    
P 14  23038.439255  12944.932145  -3242.575878    -63.277292                    
V 14   1702.896633   4804.930326  31096.475588      0.067154                    
P 15   3814.740796 -24666.787628   8213.474212     -1.695650                    
V 15   4804.630169  10761.196243  28815.252760      0.032491                    
P 16 -14699.842415   6834.773443  20840.057888   -525.641512                    
V 16 -21090.785033 -16885.389845  -8757.638955      0.007321                    
P 17  12774.268476  10387.631936 -20381.336784    688.036357                    
V 17  -3701.213787  26622.879853  11097.991497      0.027751                    
P 18 -12930.606553  -9636.225378  21133.882533    -69.975734                    
V 18  23681.921341 -12479.497030   8661.140748     -0.147843                    
P 19  15269.615575  -2096.012648 -21830.659470    254.276781                    
V 19  -3534.467232  26937.048346  -5367.649512      0.050701                    
P 20  20213.780983  -4373.859611  16565.386539    461.754028                    
V 20  18566.839552  10300.527928 -20184.847619     -0.024403                    
P 21 -12697.570478  18631.215249 -12783.694632    153.143147                    
V 21 -16396.613957   6863.812334  25891.437544     -0.009605                    
P 22 -15165.722955   5925.383427 -20524.731711    390.538692                    
V 22   2383.091168 -26987.453122  -9531.182430      0.078818                    
P 23 -20142.972795 -16482.704244   5660.134392      0.631894                    
V 23   7304.098766   1712.329316  30831.008841      0.007884                    
P 24   7820.649651 -19407.275630 -16456.932030      2.931219                    
V 24  18666.371525  -8871.900546  20171.240481     -0.172061                    
P 25 -12766.173737 -19271.978906 -13627.405506    404.642295                    
V 25  15289.865622   7052.790414 -24574.602647      0.034912                    
P 26 -22791.265364   -943.631998  13777.021365    238.983741                    
V 26 -14187.328843 -10720.586736 -23687.328167      0.007739                    
P 27 -12538.556167  15168.906286  17412.452386    145.847483                    
V 27   -936.350477 -22743.466830  19294.810922     -0.098745                    
P 29  -4565.357699 -23740.742093  10864.553923   -575.874233                    
V 29   3641.076112 -13529.543507 -27996.278858     -0.024645                    
P 30  20915.875274   2909.991966  16349.498487   -534.886190                    
V 30 -17363.639351  11240.965657  20067.394578      0.007310                    
P 31 -24725.021712   4916.142173  -9231.344574   -204.122933                    
V 31   9147.811334  -7139.148789 -28362.032152     -0.011337                    
P 32 -14547.761650  -6787.043008 -21037.282866   -339.363749                    
V 32   1503.999566 -27008.759179   7419.521223     -0.129916                    
EOF
